[{"OBJECT_NAME":"DMSP 5D-3 F17 (USA 191)","OBJECT_ID":"2006-050A","EPOCH":"2026-03-09T23:03:38.328192","MEAN_MOTION":14.14964226,"ECCENTRICITY":0.00097378,"INCLINATION":98.7414,"RA_OF_ASC_NODE":77.5505,"ARG_OF_PERICENTER":346.0855,"MEAN_ANOMALY":14.0049,"EPHEMERIS_TYPE":0,"CLASSIFICATION_TYPE":"U","NORAD_CAT_ID":29522,"ELEMENT_SET_NO":999,"REV_AT_EPOCH":99838,"BSTAR":0.00013823523,"MEAN_MOTION_DOT":2.24e-6,"MEAN_MOTION_DDOT":0},{"OBJECT_NAME":"THOR ABLESTAR DEB","OBJECT_ID":"1961-015DA","EPOCH":"2026-03-09T17:04:13.067904","MEAN_MOTION":14.13296252,"ECCENTRICITY":0.0059233,"INCLINATION":66.8679,"RA_OF_ASC_NODE":282.5274,"ARG_OF_PERICENTER":101.881,"MEAN_ANOMALY":258.8931,"EPHEMERIS_TYPE":0,"CLASSIFICATION_TYPE":"U","NORAD_CAT_ID":324,"ELEMENT_SET_NO":999,"REV_AT_EPOCH":30901,"BSTAR":0.00035817369,"MEAN_MOTION_DOT":6.03e-6,"MEAN_MOTION_DDOT":0}]
